GOES 16                 
1 41866U 16071A   17346.50948728 -.00000252  00000-0  00000+0 0  9993
2 41866   0.0357 137.7887 0002418 269.0070 142.7871  1.00266853  3938
